EUTELSAT 7A             
1 28187U 04008A   25363.31989240  .00000120  00000+0  00000+0 0  9994
2 28187   5.3983  74.0590 0001334 225.4952 134.4209  1.00272919 79641
EUTELSAT 174A           
1 28924U 05052A   25363.07419788  .00000028  00000+0  00000+0 0  9998
2 28924   3.7869  78.6583 0006210 200.9694  18.8341  1.00270632 50625
EUTELSAT HOTBIRD 13B    
1 29270U 06032A   25363.25999870  .00000177  00000+0  00000+0 0  9992
2 29270   1.2218  84.2228 0003448 195.6360 304.7828  1.00270071 45606
EUTELSAT HOTBIRD 13C    
1 33459U 08065A   25363.03563366 -.00000262  00000+0  00000+0 0  9993
2 33459   2.5118  81.2381 0003608 195.8190 143.2219  1.00271258 45632
EUTELSAT 36B            
1 36101U 09065A   25363.19231161  .00000134  00000+0  00000+0 0  9990
2 36101   0.0668  51.8086 0006009 225.9607 299.8482  1.00272930 59007
EUTELSAT KA-SAT 9A      
1 37258U 10069A   25363.18407822  .00000082  00000+0  00000+0 0  9990
2 37258   0.0511 335.6064 0001165 199.4424 358.0685  1.00266124 42303
EUTELSAT 7 WEST A       
1 37816U 11051A   25363.18087153 -.00000039  00000+0  00000+0 0  9996
2 37816   0.0616   0.1659 0005200 234.5735 280.9487  1.00270919 52179
EUTELSAT 16A            
1 37836U 11057A   25363.18546490  .00000126  00000+0  00000+0 0  9994
2 37836   0.0551 359.6033 0005802 280.7142 260.3313  1.00272787  5623
